{
  "dealerships": [
    {"id":1,"full_name":"Holdlamis Car Dealership","address":"5 Fulton Road","city":"Midland","zip":"88563","state":"Texas","lat":"31.9973","long":"-102.0779"},
    {"id":2,"full_name":"Temp Car Dealership","address":"6337 Butternut Crossing","city":"Minneapolis","zip":"55402","state":"Minnesota","lat":"44.9778","long":"-93.2650"},
    {"id":3,"full_name":"Sub-Ex Car Dealership","address":"9477 Twin Pines Center","city":"Birmingham","zip":"35285","state":"Alabama","lat":"33.5186","long":"-86.8104"},
    {"id":4,"full_name":"Solarbreeze Car Dealership","address":"580 Zephyr Circle","city":"Dallas","zip":"75241","state":"Texas","lat":"32.7767","long":"-96.7970"},
    {"id":5,"full_name":"Regrant Car Dealership","address":"93 Golf Course Pass","city":"Baltimore","zip":"21203","state":"Maryland","lat":"39.2904","long":"-76.6122"},
    {"id":6,"full_name":"Stronghold Car Dealership","address":"21 Stone Bridge","city":"Pittsburgh","zip":"15213","state":"Pennsylvania","lat":"40.4406","long":"-79.9959"},
    {"id":7,"full_name":"Job Car Dealership","address":"9 Cambridge Park","city":"Pueblo","zip":"81010","state":"Colorado","lat":"38.2544","long":"-104.6091"},
    {"id":8,"full_name":"Bytecard Car Dealership","address":"288 Larry Place","city":"Topeka","zip":"66642","state":"Kansas","lat":"39.0558","long":"-95.6890"},
    {"id":9,"full_name":"Job Car Dealership","address":"253 Hanson Junction","city":"Dallas","zip":"75216","state":"Texas","lat":"32.7767","long":"-96.7970"},
    {"id":10,"full_name":"Alphazap Car Dealership","address":"108 Memorial Pass","city":"Washington","zip":"20005","state":"District of Columbia","lat":"38.9072","long":"-77.0369"}
  ]
}
